{
  "type": "FeatureCollection",
  "features": [
    {
      "type": "Feature",
      "properties": {
        "norad_id": 15362,
        "name": "NOVA 3",
        "group": "nnss",
        "lat": -54.33419131545806,
        "lon": 80.88278231346553,
        "alt_km": 1158.7085713302422,
        "timestamp": "2025-12-27T22:26:48.872074+00:00",
        "meta_object_name": "NOVA 3",
        "meta_object_id": "1984-110A",
        "meta_epoch": "2025-12-27T11:53:08.848320",
        "meta_mean_motion": 13.23046531,
        "meta_eccentricity": 0.0029823,
        "meta_inclination": 90.1216,
        "meta_ra_of_asc_node": 80.7081,
        "meta_arg_of_pericenter": 289.2938,
        "meta_mean_anomaly": 81.6259,
        "meta_ephemeris_type": 0,
        "meta_classification_type": "U",
        "meta_norad_cat_id": 15362,
        "meta_element_set_no": 999,
        "meta_rev_at_epoch": 98894,
        "meta_bstar": 0.00019755,
        "meta_mean_motion_dot": 9.1e-07,
        "meta_mean_motion_ddot": 0,
        "tle_line1": "1 15362U 84110A   25361.49524130  .00000091  00000+0  19755-3 0  9995",
        "tle_line2": "2 15362  90.1216  80.7081 0029823 289.2938  81.6259 13.23046531988944"
      },
      "geometry": {
        "type": "Point",
        "coordinates": [
          80.88278231346553,
          -54.33419131545806
        ]
      }
    },
    {
      "type": "Feature",
      "properties": {
        "norad_id": 15935,
        "name": "OSCAR 30",
        "group": "nnss",
        "lat": 17.553514570828895,
        "lon": 100.04313600228869,
        "alt_km": 1008.1064303380144,
        "timestamp": "2025-12-27T22:26:48.872084+00:00",
        "meta_object_name": "OSCAR 30",
        "meta_object_id": "1985-066A",
        "meta_epoch": "2025-12-27T06:26:13.450272",
        "meta_mean_motion": 13.36080793,
        "meta_eccentricity": 0.0168706,
        "meta_inclination": 90.1653,
        "meta_ra_of_asc_node": 100.0846,
        "meta_arg_of_pericenter": 43.2828,
        "meta_mean_anomaly": 8.4639,
        "meta_ephemeris_type": 0,
        "meta_classification_type": "U",
        "meta_norad_cat_id": 15935,
        "meta_element_set_no": 999,
        "meta_rev_at_epoch": 96647,
        "meta_bstar": 0.00016691,
        "meta_mean_motion_dot": 1.02e-06,
        "meta_mean_motion_ddot": 0,
        "tle_line1": "1 15935U 85066A   25361.26821123  .00000102  00000+0  16691-3 0  9998",
        "tle_line2": "2 15935  90.1653 100.0846 0168706  43.2828   8.4639 13.36080793966475"
      },
      "geometry": {
        "type": "Point",
        "coordinates": [
          100.04313600228869,
          17.553514570828895
        ]
      }
    },
    {
      "type": "Feature",
      "properties": {
        "norad_id": 15936,
        "name": "OSCAR 24",
        "group": "nnss",
        "lat": 87.18800713941286,
        "lon": 88.92318150932464,
        "alt_km": 1017.5320874573399,
        "timestamp": "2025-12-27T22:26:48.872095+00:00",
        "meta_object_name": "OSCAR 24",
        "meta_object_id": "1985-066B",
        "meta_epoch": "2025-12-27T07:58:31.321344",
        "meta_mean_motion": 13.35938011,
        "meta_eccentricity": 0.016989,
        "meta_inclination": 90.1791,
        "meta_ra_of_asc_node": 92.5635,
        "meta_arg_of_pericenter": 49.5567,
        "meta_mean_anomaly": 18.1592,
        "meta_ephemeris_type": 0,
        "meta_classification_type": "U",
        "meta_norad_cat_id": 15936,
        "meta_element_set_no": 999,
        "meta_rev_at_epoch": 96838,
        "meta_bstar": 0.00014914,
        "meta_mean_motion_dot": 9.2e-07,
        "meta_mean_motion_ddot": 0,
        "tle_line1": "1 15936U 85066B   25361.33230696  .00000092  00000+0  14914-3 0  9990",
        "tle_line2": "2 15936  90.1791  92.5635 0169890  49.5567  18.1592 13.35938011968386"
      },
      "geometry": {
        "type": "Point",
        "coordinates": [
          88.92318150932464,
          87.18800713941286
        ]
      }
    },
    {
      "type": "Feature",
      "properties": {
        "norad_id": 17070,
        "name": "POLAR BEAR",
        "group": "nnss",
        "lat": -89.47458648731995,
        "lon": 50.00000842219623,
        "alt_km": 1017.6880884184575,
        "timestamp": "2025-12-27T22:26:48.872105+00:00",
        "meta_object_name": "POLAR BEAR",
        "meta_object_id": "1986-088A",
        "meta_epoch": "2025-12-27T12:28:06.882240",
        "meta_mean_motion": 13.75253896,
        "meta_eccentricity": 0.0041244,
        "meta_inclination": 89.617,
        "meta_ra_of_asc_node": 183.1819,
        "meta_arg_of_pericenter": 76.7705,
        "meta_mean_anomaly": 295.8288,
        "meta_ephemeris_type": 0,
        "meta_classification_type": "U",
        "meta_norad_cat_id": 17070,
        "meta_element_set_no": 999,
        "meta_rev_at_epoch": 96182,
        "meta_bstar": 0.00011804,
        "meta_mean_motion_dot": 1.25e-06,
        "meta_mean_motion_ddot": 0,
        "tle_line1": "1 17070U 86088A   25361.51952410  .00000125  00000+0  11804-3 0  9993",
        "tle_line2": "2 17070  89.6170 183.1819 0041244  76.7705 295.8288 13.75253896961823"
      },
      "geometry": {
        "type": "Point",
        "coordinates": [
          50.00000842219623,
          -89.47458648731995
        ]
      }
    },
    {
      "type": "Feature",
      "properties": {
        "norad_id": 18361,
        "name": "OSCAR 27",
        "group": "nnss",
        "lat": -49.58992573708441,
        "lon": 80.27927837938789,
        "alt_km": 1147.8937214819225,
        "timestamp": "2025-12-27T22:26:48.872116+00:00",
        "meta_object_name": "OSCAR 27",
        "meta_object_id": "1987-080A",
        "meta_epoch": "2025-12-27T06:37:38.342208",
        "meta_mean_motion": 13.44909782,
        "meta_eccentricity": 0.0104147,
        "meta_inclination": 90.3735,
        "meta_ra_of_asc_node": 79.8157,
        "meta_arg_of_pericenter": 182.017,
        "meta_mean_anomaly": 178.0573,
        "meta_ephemeris_type": 0,
        "meta_classification_type": "U",
        "meta_norad_cat_id": 18361,
        "meta_element_set_no": 999,
        "meta_rev_at_epoch": 87752,
        "meta_bstar": 0.0001737,
        "meta_mean_motion_dot": 1.14e-06,
        "meta_mean_motion_ddot": 0,
        "tle_line1": "1 18361U 87080A   25361.27613822  .00000114  00000+0  17370-3 0  9996",
        "tle_line2": "2 18361  90.3735  79.8157 0104147 182.0170 178.0573 13.44909782877528"
      },
      "geometry": {
        "type": "Point",
        "coordinates": [
          80.27927837938789,
          -49.58992573708441
        ]
      }
    },
    {
      "type": "Feature",
      "properties": {
        "norad_id": 18362,
        "name": "OSCAR 29",
        "group": "nnss",
        "lat": -62.13170348076236,
        "lon": 81.00951069197967,
        "alt_km": 1105.5758789718493,
        "timestamp": "2025-12-27T22:26:48.872126+00:00",
        "meta_object_name": "OSCAR 29",
        "meta_object_id": "1987-080B",
        "meta_epoch": "2025-12-27T12:06:02.600928",
        "meta_mean_motion": 13.44451208,
        "meta_eccentricity": 0.0104968,
        "meta_inclination": 90.3747,
        "meta_ra_of_asc_node": 80.2843,
        "meta_arg_of_pericenter": 204.4856,
        "meta_mean_anomaly": 166.9818,
        "meta_ephemeris_type": 0,
        "meta_classification_type": "U",
        "meta_norad_cat_id": 18362,
        "meta_element_set_no": 999,
        "meta_rev_at_epoch": 87708,
        "meta_bstar": 0.0001447,
        "meta_mean_motion_dot": 9.5e-07,
        "meta_mean_motion_ddot": 0,
        "tle_line1": "1 18362U 87080B   25361.50419677  .00000095  00000+0  14470-3 0  9991",
        "tle_line2": "2 18362  90.3747  80.2843 0104968 204.4856 166.9818 13.44451208877085"
      },
      "geometry": {
        "type": "Point",
        "coordinates": [
          81.00951069197967,
          -62.13170348076236
        ]
      }
    },
    {
      "type": "Feature",
      "properties": {
        "norad_id": 19070,
        "name": "OSCAR 23",
        "group": "nnss",
        "lat": -64.02216273429103,
        "lon": -163.7949053182499,
        "alt_km": 1199.8923739163629,
        "timestamp": "2025-12-27T22:26:48.872136+00:00",
        "meta_object_name": "OSCAR 23",
        "meta_object_id": "1988-033A",
        "meta_epoch": "2025-12-27T12:45:05.647104",
        "meta_mean_motion": 13.27789517,
        "meta_eccentricity": 0.0190638,
        "meta_inclination": 90.3203,
        "meta_ra_of_asc_node": 16.8503,
        "meta_arg_of_pericenter": 138.9126,
        "meta_mean_anomaly": 333.0692,
        "meta_ephemeris_type": 0,
        "meta_classification_type": "U",
        "meta_norad_cat_id": 19070,
        "meta_element_set_no": 999,
        "meta_rev_at_epoch": 82449,
        "meta_bstar": 0.00018361,
        "meta_mean_motion_dot": 1.01e-06,
        "meta_mean_motion_ddot": 0,
        "tle_line1": "1 19070U 88033A   25361.53131536  .00000101  00000+0  18361-3 0  9996",
        "tle_line2": "2 19070  90.3203  16.8503 0190638 138.9126 333.0692 13.27789517824499"
      },
      "geometry": {
        "type": "Point",
        "coordinates": [
          -163.7949053182499,
          -64.02216273429103
        ]
      }
    }
  ]
}